<?xml version="1.0" encoding="UTF-8"?>
<gpx version="1.1" creator="Trail Window" xmlns="http://www.topografix.com/GPX/1/1"><trk><name>Sample ridge route (illustrative)</name><trkseg>
<trkpt lat="40.650" lon="-111.680"><ele>1900</ele></trkpt>
<trkpt lat="40.654" lon="-111.674"><ele>2050</ele></trkpt>
<trkpt lat="40.660" lon="-111.668"><ele>2300</ele></trkpt>
<trkpt lat="40.667" lon="-111.662"><ele>2550</ele></trkpt>
<trkpt lat="40.672" lon="-111.654"><ele>2790</ele></trkpt>
<trkpt lat="40.675" lon="-111.650"><ele>2650</ele></trkpt>
</trkseg></trk></gpx>
